ONEWEB-0152
1 48043U 21025B   24155.39007080  .00000298  00000+0  78008-3 0  9997
2 48043  87.8919 108.2851 0002115  85.3162 274.8209 13.13468661155925
ONEWEB-0116
1 48046U 21025E   24155.10123348  .00000256  00000+0  66521-3 0  9996
2 48046  87.8924 108.3103 0002110  88.3314 271.8057 13.13468182155973
ONEWEB-0113
1 48050U 21025J   24155.17105526  .00000465  00000+0  12371-2 0  9991
2 48050  87.8922 108.3115 0002133  86.9048 273.2325 13.13469310155914
ONEWEB-0156
1 48052U 21025L   24155.16789382  .00000347  00000+0  91573-3 0  9991
2 48052  87.8919 108.3091 0001986  81.4282 278.7072 13.13469296155912
ONEWEB-0158
1 48054U 21025N   24154.56957862  .00000173  00000+0  43940-3 0  9998
2 48054  87.8920 108.4262 0001982  85.9715 274.1641 13.13468648155881
ONEWEB-0162
1 48056U 21025Q   24155.16629896  .00000318  00000+0  83555-3 0  9997
2 48056  87.8917 108.3185 0002000  81.8704 278.2652 13.13468225155852
ONEWEB-0148
1 48059U 21025T   24155.17265253  .00000298  00000+0  78142-3 0  9997
2 48059  87.8923 108.3334 0001452  69.9497 290.1789 13.13469208155940
ONEWEB-0163
1 48061U 21025V   24155.09806043  .00000320  00000+0  84014-3 0  9990
2 48061  87.8920 108.3371 0002061  74.6286 285.5071 13.13469287156015
ONEWEB-0159
1 48062U 21025W   24155.39166444  .00000377  00000+0  99852-3 0  9996
2 48062  87.8917 108.2623 0001917  76.8659 283.2684 13.13469773155966
ONEWEB-0167
1 48064U 21025Y   24155.40356822  .00000356  00000+0  94050-3 0  9993
2 48064  87.8920 108.2816 0002028  76.5142 283.6213 13.13469592155932
ONEWEB-0174
1 48072U 21025AG  24154.57274907  .00000110  00000+0  26500-3 0  9995
2 48072  87.8922 108.4420 0001889  80.5444 279.5898 13.13468660156085
ONEWEB-0178
1 48075U 21025AK  24155.39337943  .00000426  00000+0  11315-2 0  9996
2 48075  87.8924 108.2924 0002046  76.5334 283.6023 13.13469302156086
ONEWEB-0337
1 49203U 21083T   24155.16457491  .00000379  00000+0  10041-2 0  9992
2 49203  87.8924 108.3364 0002029  77.9979 282.1378 13.13468622134548
ONEWEB-0339
1 49205U 21083V   24155.40435773  .00000353  00000+0  93168-3 0  9994
2 49205  87.8922 108.2842 0002111  78.4150 281.7216 13.13468569134554
ONEWEB-0345
1 49211U 21083AB  24155.23612693  .00000264  00000+0  68688-3 0  9990
2 49211  87.8922 108.3100 0001931  66.8091 293.3241 13.13469015134546
ONEWEB-0350
1 49214U 21083AE  24154.86476689  .00000319  00000+0  83925-3 0  9996
2 49214  87.8921 108.3753 0001979  71.5635 288.5709 13.13469174133226
ONEWEB-0355
1 49218U 21083AJ  24155.10440902  .00000233  00000+0  60184-3 0  9994
2 49218  87.8926 108.3574 0002171  79.3941 280.7432 13.13469090134525
